
    {
      "objectName": "ONEWEB-0189",
      "objectId": "2021-031H",
      "noradId": 48217,
      "epochUtc": "2026-02-27T05:58:37.078464",
      "meanMotionRevPerDay": 13.14501386,
      "eccentricity": 0.00020385,
      "inclinationDeg": 87.9003,
      "raanDeg": 311.6274,
      "argPerigeeDeg": 87.0113,
      "meanAnomalyDeg": 273.125,
      "bstar": -0.000092265141,
      "meanMotionDot": -2.1e-7,
      "meanMotionDdot": 0,
      "elementSetNo": 999,
      "revAtEpoch": 23378
    },
    {
      "objectName": "ONEWEB-0187",
      "objectId": "2021-031M",
      "noradId": 48221,
      "epochUtc": "2026-02-27T04:59:02.674176",
      "meanMotionRevPerDay": 13.14501095,
      "eccentricity": 0.00019587,
      "inclinationDeg": 87.8992,
      "raanDeg": 311.6649,
      "argPerigeeDeg": 79.0815,
      "meanAnomalyDeg": 281.0535,
      "bstar": 0.000062389728,
      "meanMotionDot": 3.6e-7,
      "meanMotionDdot": 0,
      "elementSetNo": 999,
      "revAtEpoch": 23381
    },
    {
      "objectName": "ONEWEB-0204",
      "objectId": "2021-031R",
      "noradId": 48225,
      "epochUtc": "2026-02-27T05:57:28.978848",
      "meanMotionRevPerDay": 13.14502384,
      "eccentricity": 0.00017346,
      "inclinationDeg": 87.9005,
      "raanDeg": 311.633,
      "argPerigeeDeg": 68.4049,
      "meanAnomalyDeg": 291.7266,
      "bstar": -0.000082519561,
      "meanMotionDot": -1.8e-7,
      "meanMotionDdot": 0,
      "elementSetNo": 999,
      "revAtEpoch": 23381
    },
    {
      "objectName": "ONEWEB-0182",
      "objectId": "2021-031U",
      "noradId": 48228,
      "epochUtc": "2026-02-27T04:36:24.316704",
      "meanMotionRevPerDay": 13.1450102,
      "eccentricity": 0.0001702,
      "inclinationDeg": 87.9,
      "raanDeg": 311.6494,
      "argPerigeeDeg": 71.8628,
      "meanAnomalyDeg": 288.2687,
      "bstar": -0.00048365785,
      "meanMotionDot": -0.00000167,
      "meanMotionDdot": 0,
      "elementSetNo": 999,
      "revAtEpoch": 23398
    },
    {
      "objectName": "ONEWEB-0220",
      "objectId": "2021-031Y",
      "noradId": 48232,
      "epochUtc": "2026-02-27T06:12:18.795168",
      "meanMotionRevPerDay": 13.14501377,
      "eccentricity": 0.00018807,
      "inclinationDeg": 87.9006,
      "raanDeg": 311.6221,
      "argPerigeeDeg": 75.5547,
      "meanAnomalyDeg": 284.5791,
      "bstar": -0.00032628309,
      "meanMotionDot": -0.00000108,
      "meanMotionDdot": 0,
      "elementSetNo": 999,
      "revAtEpoch": 23396
    },
    {
      "objectName": "ONEWEB-0203",
      "objectId": "2021-031AB",
      "noradId": 48235,
      "epochUtc": "2026-02-27T04:27:13.832064",
      "meanMotionRevPerDay": 13.14527769,
      "eccentricity": 0.00011915,
      "inclinationDeg": 87.9029,
      "raanDeg": 311.6275,
      "argPerigeeDeg": 89.8053,
      "meanAnomalyDeg": 270.3213,
      "bstar": 0.0051345304,
      "meanMotionDot": 0.00001917,
      "meanMotionDdot": 0,
      "elementSetNo": 999,
      "revAtEpoch": 23382
    },
    {
      "objectName": "ONEWEB-0191",
      "objectId": "2021-031AF",
      "noradId": 48239,
      "epochUtc": "2026-02-27T05:49:29.051040",
      "meanMotionRevPerDay": 13.14501645,
      "eccentricity": 0.0001628,
      "inclinationDeg": 87.9006,
      "raanDeg": 311.6273,
      "argPerigeeDeg": 77.2545,
      "meanAnomalyDeg": 282.8767,
      "bstar": 0.00017430548,
      "meanMotionDot": 7.7e-7,
      "meanMotionDdot": 0,
      "elementSetNo": 999,
      "revAtEpoch": 23372
    },
    {
      "objectName": "ONEWEB-0208",
      "objectId": "2021-031AK",
      "noradId": 48243,
      "epochUtc": "2026-02-27T05:54:03.015072",
      "meanMotionRevPerDay": 13.14501411,
      "eccentricity": 0.00019024,
      "inclinationDeg": 87.9004,
      "raanDeg": 311.6365,
      "argPerigeeDeg": 85.6423,
      "meanAnomalyDeg": 274.4924,
      "bstar": 0.0001312597,
      "meanMotionDot": 6.1e-7,
      "meanMotionDdot": 0,
      "elementSetNo": 999,
      "revAtEpoch": 23386
    },
    {
      "objectName": "ONEWEB-0211",
      "objectId": "2021-045A",
      "noradId": 48767,
      "epochUtc": "2026-02-27T02:42:58.464288",
      "meanMotionRevPerDay": 13.16143171,
      "eccentricity": 0.00018729,
      "inclinationDeg": 87.8953,
      "raanDeg": 281.0844,
      "argPerigeeDeg": 100.7884,
      "meanAnomalyDeg": 259.3458,
      "bstar": 0.000068040857,
      "meanMotionDot": 3.9e-7,
      "meanMotionDdot": 0,
      "elementSetNo": 999,
      "revAtEpoch": 22996
    },
    {
      "objectName": "ONEWEB-0235",
      "objectId": "2021-045E",
      "noradId": 48771,
      "epochUtc": "2026-02-27T03:35:07.747008",
      "meanMotionRevPerDay": 13.15546878,
      "eccentricity": 0.0001555,
      "inclinationDeg": 87.8959,
      "raanDeg": 281.1573,
      "argPerigeeDeg": 103.9693,
      "meanAnomalyDeg": 256.161,
      "bstar": 0.00042734241,
      "meanMotionDot": 0.00000174,
      "meanMotionDdot": 0,
      "elementSetNo": 999,
      "revAtEpoch": 22991
    },
    {
      "objectName": "ONEWEB-0222",
      "objectId": "2021-045J",
      "noradId": 48775,
      "epochUtc": "2026-02-27T01:39:55.052352",
      "meanMotionRevPerDay": 13.15547738,
      "eccentricity": 0.0001511,
      "inclinationDeg": 87.8974,
      "raanDeg": 281.1672,
      "argPerigeeDeg": 99.8046,
      "meanAnomalyDeg": 260.3255,
      "bstar": 0.00059019364,
      "meanMotionDot": 0.00000235,
      "meanMotionDdot": 0,
      "elementSetNo": 999,
      "revAtEpoch": 22992
    },
    {
      "objectName": "ONEWEB-0245",
      "objectId": "2021-045M",
      "noradId": 48778,
      "epochUtc": "2026-02-27T03:55:39.657216",
      "meanMotionRevPerDay": 13.15546553,
      "eccentricity": 0.00017452,
      "inclinationDeg": 87.896,
      "raanDeg": 281.155,
      "argPerigeeDeg": 92.1353,
      "meanAnomalyDeg": 267.9977,
      "bstar": 0.000010795275,
      "meanMotionDot": 1.7e-7,
      "meanMotionDdot": 0,
      "elementSetNo": 999,
      "revAtEpoch": 22991
    },
    {
      "objectName": "ONEWEB-0231",
      "objectId": "2021-045R",
      "noradId": 48782,
      "epochUtc": "2026-02-27T03:28:17.360832",
      "meanMotionRevPerDay": 13.15547226,
      "eccentricity": 0.00016029,
      "inclinationDeg": 87.8951,
      "raanDeg": 281.1717,
      "argPerigeeDeg": 92.3574,
      "meanAnomalyDeg": 267.774,
      "bstar": 0.00033185019,
      "meanMotionDot": 0.00000138,
      "meanMotionDdot": 0,
      "elementSetNo": 999,
      "revAtEpoch": 22987
    },
    {
      "objectName": "ONEWEB-0240",
      "objectId": "2021-045U",
      "noradId": 48785,
      "epochUtc": "2026-02-27T03:04:20.568576",
      "meanMotionRevPerDay": 13.15547362,
      "eccentricity": 0.00018068,
      "inclinationDeg": 87.8959,
      "raanDeg": 281.1468,
      "argPerigeeDeg": 96.9054,
      "meanAnomalyDeg": 263.2282,
      "bstar": 0.00012228695,
      "meanMotionDot": 5.9e-7,
      "meanMotionDdot": 0,
      "elementSetNo": 999,
      "revAtEpoch": 22993
    }