ONEWEB-0189             
1 48217U 21031H   26058.24904026 -.00000021  00000+0 -92265-4 0  9999
2 48217  87.9003 311.6274 0002038  87.0113 273.1250 13.14501386233783
ONEWEB-0187             
1 48221U 21031M   26058.20766984  .00000036  00000+0  62390-4 0  9999
2 48221  87.8992 311.6649 0001958  79.0815 281.0535 13.14501095233815
ONEWEB-0204             
1 48225U 21031R   26058.24825207 -.00000018  00000+0 -82520-4 0  9990
2 48225  87.9005 311.6330 0001734  68.4049 291.7266 13.14502384233816
ONEWEB-0182             
1 48228U 21031U   26058.19194811 -.00000167  00000+0 -48366-3 0  9991
2 48228  87.9000 311.6494 0001702  71.8628 288.2687 13.14501020233983
ONEWEB-0220             
1 48232U 21031Y   26058.25855087 -.00000108  00000+0 -32628-3 0  9991
2 48232  87.9006 311.6221 0001880  75.5547 284.5791 13.14501377233968
ONEWEB-0203             
1 48235U 21031AB  26058.18557676  .00001917  00000+0  51345-2 0  9992
2 48235  87.9029 311.6275 0001191  89.8053 270.3213 13.14527769233820
ONEWEB-0191             
1 48239U 21031AF  26058.24269735  .00000077  00000+0  17431-3 0  9994
2 48239  87.9006 311.6273 0001628  77.2545 282.8767 13.14501645233725
ONEWEB-0208             
1 48243U 21031AK  26058.24586823  .00000061  00000+0  13126-3 0  9999
2 48243  87.9004 311.6365 0001902  85.6423 274.4924 13.14501411233861
ONEWEB-0211             
1 48767U 21045A   26058.11317667  .00000039  00000+0  68041-4 0  9991
2 48767  87.8953 281.0844 0001872 100.7884 259.3458 13.16143171229969
ONEWEB-0235             
1 48771U 21045E   26058.14939522  .00000174  00000+0  42734-3 0  9999
2 48771  87.8959 281.1573 0001555 103.9693 256.1610 13.15546878229911
ONEWEB-0222             
1 48775U 21045J   26058.06938718  .00000235  00000+0  59019-3 0  9992
2 48775  87.8974 281.1672 0001511  99.8046 260.3255 13.15547738229928
ONEWEB-0245             
1 48778U 21045M   26058.16365344  .00000017  00000+0  10795-4 0  9992
2 48778  87.8960 281.1550 0001745  92.1353 267.9977 13.15546553229914
ONEWEB-0231             
1 48782U 21045R   26058.14464538  .00000138  00000+0  33185-3 0  9991
2 48782  87.8951 281.1717 0001602  92.3574 267.7740 13.15547226229872
ONEWEB-0240             
1 48785U 21045U   26058.12801584  .00000059  00000+0  12229-3 0  9996
2 48785  87.8959 281.1468 0001806  96.9054 263.2282 13.15547362229935
